{"type": "FeatureCollection", "features": [{"type": "Feature", "properties": {"obj_type": "211-Highways, Streets and Roads", "name": "Calle 21", "info": "21121-Secondary Road", "simplified": "Main roads", "damage_gra": "Damaged", "det_method": "Photo-interpretation", "notation": "Not Applicable", "or_src_id": 994, "dmg_src_id": 2, "cd_value": "Not Applicable", "aoi": "Pereira", "layer": "transportationL", "municipio": "Pereira"}, "geometry": {"type": "LineString", "coordinates": [[-75.69691, 4.80614], [-75.69688, 4.80641]]}}, {"type": "Feature", "properties": {"obj_type": "211-Highways, Streets and Roads", "name": "Calle 29", "info": "21122-Local Road", "simplified": "Local roads", "damage_gra": "Damaged", "det_method": "Photo-interpretation", "notation": "Not Applicable", "or_src_id": 994, "dmg_src_id": 2, "cd_value": "Not Applicable", "aoi": "Pereira", "layer": "transportationL", "municipio": "Pereira"}, "geometry": {"type": "LineString", "coordinates": [[-75.70305, 4.81038], [-75.70311, 4.81015]]}}, {"type": "Feature", "properties": {"obj_type": "211-Highways, Streets and Roads", "name": "Carrera 8 Bis", "info": "21122-Local Road", "simplified": "Local roads", "damage_gra": "Damaged", "det_method": "Photo-interpretation", "notation": "Not Applicable", "or_src_id": 994, "dmg_src_id": 2, "cd_value": "Not Applicable", "aoi": "Pereira", "layer": "transportationL", "municipio": "Pereira"}, "geometry": {"type": "LineString", "coordinates": [[-75.70507, 4.81466], [-75.70526, 4.81468]]}}, {"type": "Feature", "properties": {"obj_type": "211-Highways, Streets and Roads", "name": "Calle 32", "info": "21122-Local Road", "simplified": "Local roads", "damage_gra": "Damaged", "det_method": "Photo-interpretation", "notation": "Not Applicable", "or_src_id": 994, "dmg_src_id": 2, "cd_value": "Not Applicable", "aoi": "Pereira", "layer": "transportationL", "municipio": "Pereira"}, "geometry": {"type": "LineString", "coordinates": [[-75.70523, 4.8149], [-75.70526, 4.81468]]}}, {"type": "Feature", "properties": {"obj_type": "211-Highways, Streets and Roads", "name": "Calle 30", "info": "21122-Local Road", "simplified": "Local roads", "damage_gra": "Damaged", "det_method": "Photo-interpretation", "notation": "Not Applicable", "or_src_id": 994, "dmg_src_id": 2, "cd_value": "Not Applicable", "aoi": "Pereira", "layer": "transportationL", "municipio": "Pereira"}, "geometry": {"type": "LineString", "coordinates": [[-75.70341, 4.81597], [-75.70343, 4.81585], [-75.70343, 4.81581]]}}, {"type": "Feature", "properties": {"obj_type": "211-Highways, Streets and Roads", "name": "Calle 32", "info": "21122-Local Road", "simplified": "Local roads", "damage_gra": "Damaged", "det_method": "Photo-interpretation", "notation": "Not Applicable", "or_src_id": 994, "dmg_src_id": 2, "cd_value": "Not Applicable", "aoi": "Pereira", "layer": "transportationL", "municipio": "Pereira"}, "geometry": {"type": "LineString", "coordinates": [[-75.7051, 4.81621], [-75.70511, 4.81603], [-75.70512, 4.81599]]}}, {"type": "Feature", "properties": {"obj_type": "211-Highways, Streets and Roads", "name": "Calle 12", "info": "21122-Local Road", "simplified": "Local roads", "damage_gra": "Damaged", "det_method": "Photo-interpretation", "notation": "Not Applicable", "or_src_id": 994, "dmg_src_id": 2, "cd_value": "Not Applicable", "aoi": "Pereira", "layer": "transportationL", "municipio": "Pereira"}, "geometry": {"type": "LineString", "coordinates": [[-75.69029, 4.79677], [-75.69011, 4.79692], [-75.69006, 4.79697]]}}, {"type": "Feature", "properties": {"obj_type": "211-Highways, Streets and Roads", "name": "Calle 22 Bis", "info": "21122-Local Road", "simplified": "Local roads", "damage_gra": "Damaged", "det_method": "Photo-interpretation", "notation": "Not Applicable", "or_src_id": 994, "dmg_src_id": 2, "cd_value": "Not Applicable", "aoi": "Pereira", "layer": "transportationL", "municipio": "Pereira"}, "geometry": {"type": "LineString", "coordinates": [[-75.69838, 4.80344], [-75.69833, 4.80388], [-75.69829, 4.80428]]}}, {"type": "Feature", "properties": {"obj_type": "211-Highways, Streets and Roads", "name": "Carrera 20", "info": "21122-Local Road", "simplified": "Local roads", "damage_gra": "Damaged", "det_method": "Photo-interpretation", "notation": "Not Applicable", "or_src_id": 994, "dmg_src_id": 2, "cd_value": "Not Applicable", "aoi": "Pereira", "layer": "transportationL", "municipio": "Pereira"}, "geometry": {"type": "LineString", "coordinates": [[-75.69801, 4.80384], [-75.69833, 4.80388], [-75.69833, 4.80388]]}}, {"type": "Feature", "properties": {"obj_type": "211-Highways, Streets and Roads", "name": "Calle 22", "info": "21122-Local Road", "simplified": "Local roads", "damage_gra": "Damaged", "det_method": "Photo-interpretation", "notation": "Not Applicable", "or_src_id": 994, "dmg_src_id": 2, "cd_value": "Not Applicable", "aoi": "Pereira", "layer": "transportationL", "municipio": "Pereira"}, "geometry": {"type": "LineString", "coordinates": [[-75.69798, 4.80384], [-75.69794, 4.80427], [-75.69794, 4.80427]]}}, {"type": "Feature", "properties": {"obj_type": "211-Highways, Streets and Roads", "name": "Carrera 17 Bis", "info": "21122-Local Road", "simplified": "Local roads", "damage_gra": "Damaged", "det_method": "Photo-interpretation", "notation": "Not Applicable", "or_src_id": 994, "dmg_src_id": 2, "cd_value": "Not Applicable", "aoi": "Pereira", "layer": "transportationL", "municipio": "Pereira"}, "geometry": {"type": "LineString", "coordinates": [[-75.69497, 4.80553], [-75.69473, 4.80551]]}}, {"type": "Feature", "properties": {"obj_type": "211-Highways, Streets and Roads", "name": "Carrera 15", "info": "21122-Local Road", "simplified": "Local roads", "damage_gra": "Damaged", "det_method": "Photo-interpretation", "notation": "Not Applicable", "or_src_id": 994, "dmg_src_id": 2, "cd_value": "Not Applicable", "aoi": "Pereira", "layer": "transportationL", "municipio": "Pereira"}, "geometry": {"type": "LineString", "coordinates": [[-75.698, 4.80822], [-75.69819, 4.80824]]}}, {"type": "Feature", "properties": {"obj_type": "211-Highways, Streets and Roads", "name": "Calle 22 Bis", "info": "21122-Local Road", "simplified": "Local roads", "damage_gra": "Damaged", "det_method": "Photo-interpretation", "notation": "Not Applicable", "or_src_id": 994, "dmg_src_id": 2, "cd_value": "Not Applicable", "aoi": "Pereira", "layer": "transportationL", "municipio": "Pereira"}, "geometry": {"type": "LineString", "coordinates": [[-75.6979, 4.80841], [-75.698, 4.80822]]}}, {"type": "Feature", "properties": {"obj_type": "211-Highways, Streets and Roads", "name": "Carrera 14", "info": "21122-Local Road", "simplified": "Local roads", "damage_gra": "Damaged", "det_method": "Photo-interpretation", "notation": "Not Applicable", "or_src_id": 994, "dmg_src_id": 2, "cd_value": "Not Applicable", "aoi": "Pereira", "layer": "transportationL", "municipio": "Pereira"}, "geometry": {"type": "LineString", "coordinates": [[-75.6902, 4.80779], [-75.69, 4.80777]]}}, {"type": "Feature", "properties": {"obj_type": "211-Highways, Streets and Roads", "name": "Calle 18", "info": "21122-Local Road", "simplified": "Local roads", "damage_gra": "Damaged", "det_method": "Photo-interpretation", "notation": "Not Applicable", "or_src_id": 994, "dmg_src_id": 2, "cd_value": "Not Applicable", "aoi": "Pereira", "layer": "transportationL", "municipio": "Pereira"}, "geometry": {"type": "LineString", "coordinates": [[-75.69367, 4.81158], [-75.69369, 4.81144]]}}, {"type": "Feature", "properties": {"obj_type": "211-Highways, Streets and Roads", "name": "Calle 18", "info": "21122-Local Road", "simplified": "Local roads", "damage_gra": "Damaged", "det_method": "Photo-interpretation", "notation": "Not Applicable", "or_src_id": 994, "dmg_src_id": 2, "cd_value": "Not Applicable", "aoi": "Pereira", "layer": "transportationL", "municipio": "Pereira"}, "geometry": {"type": "LineString", "coordinates": [[-75.69366, 4.81171], [-75.69367, 4.81158]]}}, {"type": "Feature", "properties": {"obj_type": "211-Highways, Streets and Roads", "name": "Calle 15", "info": "21122-Local Road", "simplified": "Local roads", "damage_gra": "Damaged", "det_method": "Photo-interpretation", "notation": "Not Applicable", "or_src_id": 994, "dmg_src_id": 2, "cd_value": "Not Applicable", "aoi": "Pereira", "layer": "transportationL", "municipio": "Pereira"}, "geometry": {"type": "LineString", "coordinates": [[-75.69107, 4.81236], [-75.69104, 4.81257], [-75.69102, 4.81275]]}}, {"type": "Feature", "properties": {"obj_type": "211-Highways, Streets and Roads", "name": "Calle 13", "info": "21121-Secondary Road", "simplified": "Local roads", "damage_gra": "Damaged", "det_method": "Photo-interpretation", "notation": "Not Applicable", "or_src_id": 994, "dmg_src_id": 2, "cd_value": "Not Applicable", "aoi": "Pereira", "layer": "transportationL", "municipio": "Pereira"}, "geometry": {"type": "LineString", "coordinates": [[-75.68931, 4.81279], [-75.68926, 4.81321], [-75.68926, 4.81323]]}}, {"type": "Feature", "properties": {"obj_type": "211-Highways, Streets and Roads", "name": "Megabus", "info": "21122-Local Road", "simplified": "Local roads", "damage_gra": "Damaged", "det_method": "Photo-interpretation", "notation": "Not Applicable", "or_src_id": 994, "dmg_src_id": 2, "cd_value": "Not Applicable", "aoi": "Pereira", "layer": "transportationL", "municipio": "Pereira"}, "geometry": {"type": "LineString", "coordinates": [[-75.68934, 4.8128], [-75.68929, 4.81324]]}}, {"type": "Feature", "properties": {"obj_type": "211-Highways, Streets and Roads", "name": "Carrera 8", "info": "21121-Secondary Road", "simplified": "Main roads", "damage_gra": "Damaged", "det_method": "Photo-interpretation", "notation": "Not Applicable", "or_src_id": 994, "dmg_src_id": 2, "cd_value": "Not Applicable", "aoi": "Pereira", "layer": "transportationL", "municipio": "Pereira"}, "geometry": {"type": "LineString", "coordinates": [[-75.68926, 4.81323], [-75.68925, 4.81323], [-75.68867, 4.81316], [-75.68862, 4.81315]]}}, {"type": "Feature", "properties": {"obj_type": "211-Highways, Streets and Roads", "name": "Carrera 8", "info": "21121-Secondary Road", "simplified": "Main roads", "damage_gra": "Damaged", "det_method": "Photo-interpretation", "notation": "Not Applicable", "or_src_id": 994, "dmg_src_id": 2, "cd_value": "Not Applicable", "aoi": "Pereira", "layer": "transportationL", "municipio": "Pereira"}, "geometry": {"type": "LineString", "coordinates": [[-75.68939, 4.81325], [-75.68931, 4.81324], [-75.68929, 4.81324]]}}, {"type": "Feature", "properties": {"obj_type": "211-Highways, Streets and Roads", "name": "Calle 13", "info": "21121-Secondary Road", "simplified": "Main roads", "damage_gra": "Damaged", "det_method": "Photo-interpretation", "notation": "Not Applicable", "or_src_id": 994, "dmg_src_id": 2, "cd_value": "Not Applicable", "aoi": "Pereira", "layer": "transportationL", "municipio": "Pereira"}, "geometry": {"type": "LineString", "coordinates": [[-75.68926, 4.81323], [-75.68925, 4.81328], [-75.68924, 4.81338]]}}, {"type": "Feature", "properties": {"obj_type": "211-Highways, Streets and Roads", "name": "Megabus", "info": "21122-Local Road", "simplified": "Local roads", "damage_gra": "Damaged", "det_method": "Photo-interpretation", "notation": "Not Applicable", "or_src_id": 994, "dmg_src_id": 2, "cd_value": "Not Applicable", "aoi": "Pereira", "layer": "transportationL", "municipio": "Pereira"}, "geometry": {"type": "LineString", "coordinates": [[-75.68929, 4.81324], [-75.68927, 4.81338]]}}, {"type": "Feature", "properties": {"obj_type": "211-Highways, Streets and Roads", "name": "Calle 14", "info": "21121-Secondary Road", "simplified": "Main roads", "damage_gra": "Damaged", "det_method": "Photo-interpretation", "notation": "Not Applicable", "or_src_id": 994, "dmg_src_id": 2, "cd_value": "Not Applicable", "aoi": "Pereira", "layer": "transportationL", "municipio": "Pereira"}, "geometry": {"type": "LineString", "coordinates": [[-75.68977, 4.81629], [-75.68979, 4.81613]]}}, {"type": "Feature", "properties": {"obj_type": "211-Highways, Streets and Roads", "name": "Calle 21", "info": "21122-Local Road", "simplified": "Local roads", "damage_gra": "Damaged", "det_method": "Photo-interpretation", "notation": "Not Applicable", "or_src_id": 1, "dmg_src_id": 4, "cd_value": "Not Applicable", "aoi": "Quibdo Centre", "layer": "transportationL", "municipio": "Quibdó"}, "geometry": {"type": "LineString", "coordinates": [[-76.64354, 5.68277], [-76.64344, 5.68269]]}}, {"type": "Feature", "properties": {"obj_type": "211-Highways, Streets and Roads", "name": "Calle 18", "info": "21121-Secondary Road", "simplified": "Main roads", "damage_gra": "Damaged", "det_method": "Photo-interpretation", "notation": "Not Applicable", "or_src_id": 1, "dmg_src_id": 3, "cd_value": "Not Applicable", "aoi": "Quibdo Centre", "layer": "transportationL", "municipio": "Quibdó"}, "geometry": {"type": "LineString", "coordinates": [[-76.6541, 5.68166], [-76.65394, 5.68155]]}}]}